satname,norad_id,inclination_deg,eccentricity,mean_motion_rev_per_day,perigee_km,apogee_km,l1,l2
STARLINK-1573,46061,53.1592,0.0001037,15.31711202,469.996377768447,471.4168279316782,1 46061U 20055AL  26191.20603132  .00002732  00000+0  99723-4 0  9992,2 46061  53.1592 263.8473 0001037  89.1135 270.9986 15.31711202327843
STARLINK-1577,46063,53.1583,0.0001151,15.31710965,469.91900734620594,471.4956113062126,1 46063U 20055AN  26191.23399279  .00003267  00000+0  11697-3 0  9998,2 46063  53.1583 263.7131 0001151  76.1475 283.9655 15.31710965327847
STARLINK-1583,46064,53.1592,0.0001162,15.31702726,469.9360306109511,471.5277077361461,1 46064U 20055AP  26190.53029163  .00000708  00000+0  34581-4 0  9998,2 46064  53.1592 267.4907 0001162  86.6250 273.4885 15.31702726327721
STARLINK-1536,46070,53.1575,0.0001121,15.31719071,469.91539341848784,471.4508988952557,1 46070U 20055AV  26190.46633284  .00003327  00000+0  11884-3 0  9992,2 46070  53.1575 255.1754 0001121  83.3300 276.7829 15.31719071327891
STARLINK-1542,46073,53.1574,0.0001238,15.31723921,469.8208067531168,471.5165710416877,1 46073U 20055AY  26191.66519935  .00004143  00000+0  14508-3 0  9997,2 46073  53.1574 252.5610 0001238  64.4778 295.6351 15.31723921328028
STARLINK-1549,46074,53.0506,0.0001888,15.34215109,461.9611760102671,464.54448481023064,1 46074U 20055AZ  26190.18121649  .00021075  00000+0  63678-3 0  9990,2 46074  53.0506 256.1746 0001888  24.3548 335.7542 15.34215109327826
STARLINK-1551,46075,53.1596,0.0001378,15.31705347,469.78028308971443,471.66782919678826,1 46075U 20055BA  26191.17509028  .00000308  00000+0  21703-4 0  9992,2 46075  53.1596 251.8133 0001378  78.2982 281.8174 15.31705347327998
STARLINK-1552,46076,53.1586,0.0001103,15.31732987,469.8862441731844,471.39708474656527,1 46076U 20055BB  26191.81354535  .00008588  00000+0  28789-3 0  9993,2 46076  53.1586 248.4213 0001103  50.7781 309.3319 15.31732987328085
STARLINK-1559,46077,53.0221,0.0004221,15.41395511,439.1110077913045,444.86855882177133,1 46077U 20055BC  26190.46707057  .00038977  00000+0  92349-3 0  9993,2 46077  53.0221 221.8712 0004221  20.5998 339.5176 15.41395511328297
STARLINK-1566,46079,53.1593,0.0001248,15.31706104,469.86706200151275,471.5765371578891,1 46079U 20055BE  26191.16568462  .00000327  00000+0  22304-4 0  9991,2 46079  53.1593 251.2927 0001248  93.9856 266.1288 15.31706104328001
STARLINK-1568,46080,53.0556,0.0003174,15.56956292,394.3216243140332,398.6221460343413,1 46080U 20055BF  26189.65273039  .00035252  00000+0  48494-3 0  9999,2 46080  53.0556 171.2379 0003174  89.9643 270.1732 15.56956292328979
STARLINK-1578,46082,53.1596,0.000138,15.31713223,469.75543884845956,471.6457180201078,1 46082U 20055BH  26191.17008177  .00002586  00000+0  95041-4 0  9995,2 46082  53.1596 251.7909 0001380  83.6539 276.4619 15.31713223327993
STARLINK-1579,46083,53.1574,9.35e-05,15.31707339,470.07775018234497,471.35848608943525,1 46083U 20055BJ  26190.50387525  .00001427  00000+0  57729-4 0  9993,2 46083  53.1574 254.4204 0000935  86.6552 273.4556 15.31707339327898
STARLINK-1622,46128,53.0072,0.001122,16.06222508,249.7813718049929,264.67112693658146,1 46128U 20057M   26191.71089488  .00583479  17696-3  76433-3 0  9993,2 46128  53.0072 327.6833 0011220 306.7491  53.2510 16.06222508326793
STARLINK-1623,46129,53.0365,0.0002412,15.8534598,313.73624908977945,316.9651875651016,1 46129U 20057N   26191.91668980  .00165869  00000+0  67062-3 0  9990,2 46129  53.0365   8.3522 0002412 251.0588 195.0017 15.85345980  6034
STARLINK-1596,46141,53.0323,0.0002265,15.65840682,369.2934128370571,372.3506912876401,1 46141U 20057AA  26191.44786047  .00057368  00000+0  55590-3 0  9994,2 46141  53.0323 357.1798 0002265 195.8617 164.2327 15.65840682326377
STARLINK-1597,46142,53.037,0.0003853,15.8401531,316.51837548958065,321.6792654128203,1 46142U 20057AB  26191.91668980  .00094244  00000+0  41067-3 0  9990,2 46142  53.0370  48.2542 0003853 211.4803 290.9832 15.84015310  6052
STARLINK-1608,46146,53.1552,0.000532,15.39116597,445.08844415788917,452.35222035941297,1 46146U 20057AF  26189.98863563  .00047348  00000+0  12056-2 0  9990,2 46146  53.1552 102.9324 0005320  87.6054 272.5560 15.39116597324794
STARLINK-1545,46156,53.0261,0.0013302,16.21104283,207.78307764906185,225.32759714346957,1 46156U 20057AR  26191.62880779  .01865377  11848-4  84555-3 0  9995,2 46156  53.0261   2.6912 0013302 290.7663  69.1950 16.21104283327553
STARLINK-1595,46159,53.0374,0.0003791,15.80334259,326.95177736645473,332.0375036762971,1 46159U 20057AU  26189.88897456  .00124480  00000+0  64051-3 0  9997,2 46159  53.0374  61.8045 0003791 173.9362 186.1706 15.80334259326587
STARLINK-1598,46160,53.0421,0.0002636,15.79029984,331.4186854902664,334.95689591992686,1 46160U 20057AV  26190.32115620  .00119575  00000+0  65348-3 0  9995,2 46160  53.0421  45.9816 0002636 273.6328  86.4391 15.79029984326832
STARLINK-1626,46167,53.0366,0.0004893,15.84736428,313.7910308730907,320.3429575018017,1 46167U 20057BC  26191.91668980  .00072930  00000+0  30842-3 0  9994,2 46167  53.0366  46.4314 0004893 247.4206  14.1714 15.84736428  6057
STARLINK-1633,46171,53.0274,0.0009908,16.0048312,266.4898530569808,279.66990442389306,1 46171U 20057BG  26191.84587244  .00365963  68297-4  67940-3 0  9991,2 46171  53.0274   5.1954 0009908 291.3131  68.6840 16.00483120327540
STARLINK-1640,46173,53.0369,0.0003125,15.81159788,325.0643136192475,329.2551240685243,1 46173U 20057BJ  26191.91668980  .00068261  00000+0  34199-3 0  9992,2 46173  53.0369  52.6208 0003125 188.0388   5.3041 15.81159788  6045
STARLINK-1641,46174,53.0448,0.0002855,15.68160596,362.2392748344855,366.08912882072946,1 46174U 20057BK  26191.03227611  .00061930  00000+0  54573-3 0  9992,2 46174  53.0448  51.3637 0002855 239.7913 120.2820 15.68160596325571
STARLINK-1695,46329,53.0383,0.0003816,15.84916432,314.00535778768517,319.1147505794379,1 46329U 20062E   26191.91668980  .00067700  00000+0  28433-3 0  9992,2 46329  53.0383  89.3228 0003816 225.4296 257.0529 15.84916432  5983
STARLINK-1719,46331,53.028,0.0005376,15.97109081,278.86339109752953,286.02484791722327,1 46331U 20062G   26191.91668980  .00372868  67767-4  84080-3 0  9997,2 46331  53.0280  86.7604 0005376 222.1929 322.5986 15.97109081  6075
STARLINK-1759,46340,53.005,0.0004864,16.0717469,251.37904614970284,257.8313777734984,1 46340U 20062R   26191.67201297  .00695237  25707-3  86439-3 0  9999,2 46340  53.0050  76.2544 0004864 227.5346 132.5276 16.07174690324344
